start=new Date('2021-12-25T00:00:00.000Z').valueOf();
sats=[{"TLE_LINE1":"1 47652U 21012AJ  21358.81964774 -.00001402  00000-0 -75268-4 0  9996","PERIOD":"95.593","RA_OF_ASC_NODE":"126.4082","REF_FRAME":"TEME","MEAN_MOTION":"15.06392908","OBJECT_TYPE":"PAYLOAD","MEAN_MOTION_DOT":"-0.00001402","OBJECT_ID":"2021-012AJ","TIME_SYSTEM":"UTC","ECCENTRICITY":"0.00015890","SITE":"AFETR","EPHEMERIS_TYPE":"0","BSTAR":"-0.00007526800000","ELEMENT_SET_NO":"999","REV_AT_EPOCH":"4849","INCLINATION":"53.0540","CENTER_NAME":"EARTH","RCS_SIZE":"LARGE","TLE_LINE2":"2 47652  53.0540 126.4082 0001589  90.4630 269.6541 15.06392908 48492","COUNTRY_CODE":"US","EPOCH":"2021-12-24T19:40:17.564736","MEAN_ELEMENT_THEORY":"SGP4","FILE":"3250462","DECAY_DATE":null,"OBJECT_NAME":"STARLINK-2036","LAUNCH_DATE":"2021-02-16","PERIAPSIS":"546.135","NORAD_CAT_ID":"47652","GP_ID":"192398244","SEMIMAJOR_AXIS":"6925.370","APOAPSIS":"548.336","MEAN_ANOMALY":"269.6541","ARG_OF_PERICENTER":"90.4630","CLASSIFICATION_TYPE":"U","MEAN_MOTION_DDOT":"0.0000000000000"},{"REF_FRAME":"TEME","RA_OF_ASC_NODE":"106.4241","PERIOD":"95.592","TLE_LINE1":"1 47653U 21012AK  21358.81411449  .00000060  00000-0  22920-4 0  9997","OBJECT_TYPE":"PAYLOAD","MEAN_MOTION":"15.06397244","MEAN_MOTION_DOT":"0.00000060","INCLINATION":"53.0536","REV_AT_EPOCH":"4876","ELEMENT_SET_NO":"999","BSTAR":"0.00002292000000","EPHEMERIS_TYPE":"0","ECCENTRICITY":"0.00012760","SITE":"AFETR","OBJECT_ID":"2021-012AK","TIME_SYSTEM":"UTC","TLE_LINE2":"2 47653  53.0536 106.4241 0001276  84.5602 275.5532 15.06397244 48763","COUNTRY_CODE":"US","EPOCH":"2021-12-24T19:32:19.491936","RCS_SIZE":"LARGE","CENTER_NAME":"EARTH","DECAY_DATE":null,"FILE":"3250462","MEAN_ELEMENT_THEORY":"SGP4","SEMIMAJOR_AXIS":"6925.357","GP_ID":"192396992","NORAD_CAT_ID":"47653","PERIAPSIS":"546.338","LAUNCH_DATE":"2021-02-16","OBJECT_NAME":"STARLINK-2037","MEAN_MOTION_DDOT":"0.0000000000000","CLASSIFICATION_TYPE":"U","ARG_OF_PERICENTER":"84.5602","MEAN_ANOMALY":"275.5532","APOAPSIS":"548.106"},{"NORAD_CAT_ID":"47654","PERIAPSIS":"545.834","LAUNCH_DATE":"2021-02-16","OBJECT_NAME":"STARLINK-2038","SEMIMAJOR_AXIS":"6925.341","GP_ID":"192397242","ARG_OF_PERICENTER":"99.8495","MEAN_ANOMALY":"260.2717","APOAPSIS":"548.578","MEAN_MOTION_DDOT":"0.0000000000000","CLASSIFICATION_TYPE":"U","RCS_SIZE":"LARGE","CENTER_NAME":"EARTH","EPOCH":"2021-12-24T19:45:36.830016","TLE_LINE2":"2 47654  53.0542 126.3810 0001981  99.8495 260.2717 15.06402538 48495","COUNTRY_CODE":"US","FILE":"3250462","MEAN_ELEMENT_THEORY":"SGP4","DECAY_DATE":null,"MEAN_MOTION_DOT":"0.00003623","ECCENTRICITY":"0.00019810","SITE":"AFETR","OBJECT_ID":"2021-012AL","TIME_SYSTEM":"UTC","REV_AT_EPOCH":"4849","INCLINATION":"53.0542","ELEMENT_SET_NO":"999","EPHEMERIS_TYPE":"0","BSTAR":"0.00026196000000","PERIOD":"95.592","TLE_LINE1":"1 47654U 21012AL  21358.82334294  .00003623  00000-0  26196-3 0  9997","REF_FRAME":"TEME","RA_OF_ASC_NODE":"126.3810","MEAN_MOTION":"15.06402538","OBJECT_TYPE":"PAYLOAD"},{"ECCENTRICITY":"0.00018360","SITE":"AFETR","OBJECT_ID":"2021-012AM","TIME_SYSTEM":"UTC","INCLINATION":"53.0548","REV_AT_EPOCH":"4848","ELEMENT_SET_NO":"999","BSTAR":"0.00015155000000","EPHEMERIS_TYPE":"0","MEAN_MOTION_DOT":"0.00001977","MEAN_MOTION":"15.06409218","OBJECT_TYPE":"PAYLOAD","PERIOD":"95.592","TLE_LINE1":"1 47655U 21012AM  21358.74960955  .00001977  00000-0  15155-3 0  9991","REF_FRAME":"TEME","RA_OF_ASC_NODE":"126.7183","ARG_OF_PERICENTER":"97.4096","APOAPSIS":"548.457","MEAN_ANOMALY":"262.7102","MEAN_MOTION_DDOT":"0.0000000000000","CLASSIFICATION_TYPE":"U","NORAD_CAT_ID":"47655","PERIAPSIS":"545.914","LAUNCH_DATE":"2021-02-16","OBJECT_NAME":"STARLINK-2039","SEMIMAJOR_AXIS":"6925.320","GP_ID":"192397494","FILE":"3250462","MEAN_ELEMENT_THEORY":"SGP4","DECAY_DATE":null,"RCS_SIZE":"LARGE","CENTER_NAME":"EARTH","COUNTRY_CODE":"US","TLE_LINE2":"2 47655  53.0548 126.7183 0001836  97.4096 262.7102 15.06409218 48485","EPOCH":"2021-12-24T17:59:26.265120"},{"DECAY_DATE":null,"MEAN_ELEMENT_THEORY":"SGP4","FILE":"3250462","TLE_LINE2":"2 47656  53.0538 106.3427 0001405  88.9768 271.1382 15.06398411 48771","EPOCH":"2021-12-24T19:58:52.390848","COUNTRY_CODE":"US","CENTER_NAME":"EARTH","RCS_SIZE":"LARGE","CLASSIFICATION_TYPE":"U","MEAN_MOTION_DDOT":"0.0000000000000","APOAPSIS":"548.191","MEAN_ANOMALY":"271.1382","ARG_OF_PERICENTER":"88.9768","GP_ID":"192397745","SEMIMAJOR_AXIS":"6925.353","OBJECT_NAME":"STARLINK-2040","LAUNCH_DATE":"2021-02-16","NORAD_CAT_ID":"47656","PERIAPSIS":"546.245","OBJECT_TYPE":"PAYLOAD","MEAN_MOTION":"15.06398411","RA_OF_ASC_NODE":"106.3427","REF_FRAME":"TEME","TLE_LINE1":"1 47656U 21012AN  21358.83255082  .00002357  00000-0  17706-3 0  9997","PERIOD":"95.592","BSTAR":"0.00017706000000","EPHEMERIS_TYPE":"0","ELEMENT_SET_NO":"999","REV_AT_EPOCH":"4877","INCLINATION":"53.0538","OBJECT_ID":"2021-012AN","TIME_SYSTEM":"UTC","SITE":"AFETR","ECCENTRICITY":"0.00014050","MEAN_MOTION_DOT":"0.00002357"},{"DECAY_DATE":null,"FILE":"3250462","MEAN_ELEMENT_THEORY":"SGP4","TLE_LINE2":"2 47657  53.0543 126.6283 0001423  94.1241 265.9910 15.06387791 48483","EPOCH":"2021-12-24T18:31:17.463360","COUNTRY_CODE":"US","CENTER_NAME":"EARTH","RCS_SIZE":"LARGE","MEAN_MOTION_DDOT":"0.0000000000000","CLASSIFICATION_TYPE":"U","MEAN_ANOMALY":"265.9910","APOAPSIS":"548.236","ARG_OF_PERICENTER":"94.1241","SEMIMAJOR_AXIS":"6925.386","GP_ID":"192396493","PERIAPSIS":"546.265","NORAD_CAT_ID":"47657","OBJECT_NAME":"STARLINK-2041","LAUNCH_DATE":"2021-02-16","OBJECT_TYPE":"PAYLOAD","MEAN_MOTION":"15.06387791","REF_FRAME":"TEME","RA_OF_ASC_NODE":"126.6283","PERIOD":"95.593","TLE_LINE1":"1 47657U 21012AP  21358.77172990  .00002511  00000-0  18746-3 0  9994","ELEMENT_SET_NO":"999","INCLINATION":"53.0543","REV_AT_EPOCH":"4848","EPHEMERIS_TYPE":"0","BSTAR":"0.00018746000000","OBJECT_ID":"2021-012AP","TIME_SYSTEM":"UTC","SITE":"AFETR","ECCENTRICITY":"0.00014230","MEAN_MOTION_DOT":"0.00002511"},{"RCS_SIZE":"LARGE","CENTER_NAME":"EARTH","COUNTRY_CODE":"US","TLE_LINE2":"2 47658  53.0536 126.3601 0001636  95.4878 264.6298 15.06408792 48517","EPOCH":"2021-12-24T19:56:12.508512","MEAN_ELEMENT_THEORY":"SGP4","FILE":"3250462","DECAY_DATE":null,"LAUNCH_DATE":"2021-02-16","OBJECT_NAME":"STARLINK-2042","NORAD_CAT_ID":"47658","PERIAPSIS":"546.054","GP_ID":"192396743","SEMIMAJOR_AXIS":"6925.322","ARG_OF_PERICENTER":"95.4878","APOAPSIS":"548.320","MEAN_ANOMALY":"264.6298","CLASSIFICATION_TYPE":"U","MEAN_MOTION_DDOT":"0.0000000000000","TLE_LINE1":"1 47658U 21012AQ  21358.83070033  .00002897  00000-0  21325-3 0  9991","PERIOD":"95.592","RA_OF_ASC_NODE":"126.3601","REF_FRAME":"TEME","MEAN_MOTION":"15.06408792","OBJECT_TYPE":"PAYLOAD","MEAN_MOTION_DOT":"0.00002897","SITE":"AFETR","ECCENTRICITY":"0.00016360","TIME_SYSTEM":"UTC","OBJECT_ID":"2021-012AQ","BSTAR":"0.00021325000000","EPHEMERIS_TYPE":"0","INCLINATION":"53.0536","REV_AT_EPOCH":"4851","ELEMENT_SET_NO":"999"},{"MEAN_MOTION":"15.06347234","OBJECT_TYPE":"PAYLOAD","PERIOD":"95.595","TLE_LINE1":"1 47659U 21012AR  21358.91667824  .00042223  00000-0  28406-2 0  9994","REF_FRAME":"TEME","RA_OF_ASC_NODE":"5.9611","OBJECT_ID":"2021-012AR","TIME_SYSTEM":"UTC","ECCENTRICITY":"0.00017190","SITE":"AFETR","ELEMENT_SET_NO":"999","REV_AT_EPOCH":"358","INCLINATION":"53.0525","BSTAR":"0.00284060000000","EPHEMERIS_TYPE":"0","MEAN_MOTION_DOT":"0.00042223","FILE":"3250462","MEAN_ELEMENT_THEORY":"SGP4","DECAY_DATE":null,"CENTER_NAME":"EARTH","RCS_SIZE":"LARGE","TLE_LINE2":"2 47659  53.0525   5.9611 0001719  43.6370 282.9850 15.06347234  3581","COUNTRY_CODE":"US","EPOCH":"2021-12-24T22:00:00.999936","APOAPSIS":"548.566","MEAN_ANOMALY":"282.9850","ARG_OF_PERICENTER":"43.6370","MEAN_MOTION_DDOT":"0.0000000000000","CLASSIFICATION_TYPE":"U","PERIAPSIS":"546.185","NORAD_CAT_ID":"47659","OBJECT_NAME":"STARLINK-2043","LAUNCH_DATE":"2021-02-16","SEMIMAJOR_AXIS":"6925.510","GP_ID":"192397994"},{"MEAN_MOTION_DDOT":"0.0000000000000","CLASSIFICATION_TYPE":"U","ARG_OF_PERICENTER":"39.4069","APOAPSIS":"478.167","MEAN_ANOMALY":"119.7535","SEMIMAJOR_AXIS":"6855.038","GP_ID":"192398245","NORAD_CAT_ID":"47660","PERIAPSIS":"475.639","LAUNCH_DATE":"2021-02-16","OBJECT_NAME":"STARLINK-2044","DECAY_DATE":null,"FILE":"3250462","MEAN_ELEMENT_THEORY":"SGP4","TLE_LINE2":"2 47660  53.0543 357.4085 0001844  39.4069 119.7535 15.29635529  3657","COUNTRY_CODE":"US","EPOCH":"2021-12-24T22:00:00.999936","RCS_SIZE":"LARGE","CENTER_NAME":"EARTH","REV_AT_EPOCH":"365","INCLINATION":"53.0543","ELEMENT_SET_NO":"999","EPHEMERIS_TYPE":"0","BSTAR":"-0.02276900000000","SITE":"AFETR","ECCENTRICITY":"0.00018440","OBJECT_ID":"2021-012AS","TIME_SYSTEM":"UTC","MEAN_MOTION_DOT":"-0.00618459","OBJECT_TYPE":"PAYLOAD","MEAN_MOTION":"15.29635529","REF_FRAME":"TEME","RA_OF_ASC_NODE":"357.4085","PERIOD":"94.140","TLE_LINE1":"1 47660U 21012AS  21358.91667824 -.00618459  00000-0 -22769-1 0  9993"},{"MEAN_MOTION_DOT":"0.00001892","TIME_SYSTEM":"UTC","OBJECT_ID":"2021-012AT","SITE":"AFETR","ECCENTRICITY":"0.00011590","ELEMENT_SET_NO":"999","INCLINATION":"53.0544","REV_AT_EPOCH":"4875","BSTAR":"0.00014583000000","EPHEMERIS_TYPE":"0","PERIOD":"95.592","TLE_LINE1":"1 47661U 21012AT  21358.79568409  .00001892  00000-0  14583-3 0  9991","REF_FRAME":"TEME","RA_OF_ASC_NODE":"106.5059","MEAN_MOTION":"15.06402021","OBJECT_TYPE":"PAYLOAD","PERIAPSIS":"546.405","NORAD_CAT_ID":"47661","OBJECT_NAME":"STARLINK-2051","LAUNCH_DATE":"2021-02-16","SEMIMAJOR_AXIS":"6925.342","GP_ID":"192396993","APOAPSIS":"548.010","MEAN_ANOMALY":"259.3877","ARG_OF_PERICENTER":"100.7243","MEAN_MOTION_DDOT":"0.0000000000000","CLASSIFICATION_TYPE":"U","CENTER_NAME":"EARTH","RCS_SIZE":"LARGE","EPOCH":"2021-12-24T19:05:47.105376","TLE_LINE2":"2 47661  53.0544 106.5059 0001159 100.7243 259.3877 15.06402021 48752","COUNTRY_CODE":"US","FILE":"3250462","MEAN_ELEMENT_THEORY":"SGP4","DECAY_DATE":null}];
